connection_code,address,network_region_id,network_region_name,network_region_zone,latitude,longitude
ABY0111,ALBURY,32,South Canterbury (Alpine Energy),LSI,-44.2515108619021,170.800381123305
AKL0331,AUCKLAND AIRPORT,4,Auckland (Vector),UNI,-36.9627524165694,174.827615080386
ALB0331,ALBANY,3,Waitemata (Vector),UNI,-36.7390903655876,174.690133825624
ALB1101,ALBANY,3,Waitemata (Vector),UNI,-36.7390903655876,174.690133825624
ANI0331,ANIWHENUA,12,Eastern Bay of Plenty (Horizon Energy),CNI,-38.29527739743,176.791945586064
APC0011,APEX MEGA CENTRE,4,Auckland (Vector),UNI,-36.9196335380211,174.840426336646
APS0111,ARTHURS PASS,30,Central Canterbury (Orion New Zealand),USI,-42.9490456800659,171.568848932917
ARA2201,ARATIATIA,13,Taupo (Unison Networks),CNI,-38.6158906223064,176.14303617727
ARG1101,ARGYLE,,,USI,-41.6708510408292,173.202251099547
ARI1101,ARAPUNI,6,Thames Valley (Powerco),CNI,-38.0720255832273,175.642919277763
ARI1102,Arapuni,6,Thames Valley (Powerco),CNI,-38.0720255832273,175.642919277763
ASB0661,ASHBURTON,31,Ashburton (Electricity Ashburton),USI,-43.9416371186942,171.80214899733
ASC0011,AVONHEAD,30,Central Canterbury (Orion New Zealand),USI,-43.5364751569868,172.511818053536
ASY0111,ASHLEY,29,North Canterbury (MainPower NZ),USI,-43.2624932019057,172.622673869828
ATI0111,ATIAMURI,9,King Country (The Lines Company),CNI,-38.3928313316073,176.022730360177
ATI0112,ATIAMURI,11,Rotorua (Unison Networks),CNI,-38.3928313316073,176.022730360177
ATI2201,ATIAMURI,9,King Country (The Lines Company),CNI,-38.3928313316073,176.022730360177
AVI2201,AVIEMORE,33,Waitaki (Network Waitaki),LSI,-44.6584430223941,170.354334936338
BAL0331,BALCLUTHA,36,Otago (OtagoNet JV),LSI,-46.2277047684518,169.770880849358
BDE0111,BRYDONE,38,Southland (The Power Company),LSI,-46.224474722106,168.841731198383
BEN2202,BENMORE,33,Waitaki (Network Waitaki),LSI,-44.5655962959538,170.193570606646
BLF0111,Bluff,39,Invercargill (Electricity Invercargill),LSI,-46.5990125327907,168.344390505043
BLN0331,BLENHEIM,26,Marlborough (Marlborough Lines),USI,-41.4984242833019,173.932531799498
BOB0331,BOMBAY,5,Counties (Counties Power),UNI,-37.1886804624359,175.000087126409
BOB1101,BOMBAY,5,Counties (Counties Power),UNI,-37.1886804624359,175.000087126409
BPD1101,Bells Pond,32,South Canterbury (Alpine Energy),LSI,-44.9016401706176,171.014809494672
BPE0331,BUNNYTHORPE,21,Manawatu (Powerco),LNI,-40.2806142628474,175.640510120221
BPE0551,BUNNYTHORPE,21,Manawatu (Powerco),LNI,-40.2806142628474,175.640510120221
BPT1101,BLACKPOINT,33,Waitaki (Network Waitaki),LSI,-44.8882076258572,170.799654660874
BRB0331,BREAM BAY,2,Whangarei and Kaipara (Northpower),UNI,-35.8490321606811,174.479885300541
BRI0111,BRICK STREET,3,Waitemata (Vector),UNI,-36.8860901873195,174.660301329964
BRK0331,BRUNSWICK,20,Wanganui (Powerco),LNI,-39.8697842912758,175.050595533469
BRY0661,BROMLEY,30,Central Canterbury (Orion New Zealand),USI,-43.5323735486582,172.698098318627
BSC0011,BAYFAIR SHOPPING CENTRE,10,Tauranga (Powerco),CNI,-37.6778805985214,176.214234182295
BTC0011,BOTANY TOWN CENTRE,4,Auckland (Vector),UNI,-36.9259447969156,174.906566934103
BWK1101,BERWICK,,,LSI,-45.9404695631272,170.102172162036
CBG0111,CAMBRIDGE,8,Waipa (Waipa Networks),CNI,-37.8706964918192,175.483932315652
CGP0011,Grand Plimmer Tower Wellington,23,Wellington (Wellington Electricity),LNI,-41.258626227828,174.75982495281
CGT0011,109 FEATHERSTON STREET,23,Wellington (Wellington Electricity),LNI,-41.2822354048852,174.777916592605
CIA0041,CHRISTCHURCH INTL AIRPORT,30,Central Canterbury (Orion New Zealand),USI,-43.5364751569868,172.511818053536
CIA0111,CHRISTCHURCH INTL AIRPORT,30,Central Canterbury (Orion New Zealand),USI,-43.5364751569868,172.511818053536
CIA0112,CHRISTCHURCH INTL AIRPORT,30,Central Canterbury (Orion New Zealand),USI,-43.5364751569868,172.511818053536
CLH0111,CASTLE HILL,30,Central Canterbury (Orion New Zealand),USI,-43.2132634814022,171.729734322118
CML0331,CROMWELL,35,Central Otago (Aurora Energy),LSI,-45.0596732368693,169.191729648357
CNL0011,SAS House 89 The Terrace WLG,23,Wellington (Wellington Electricity),LNI,-41.2817002706875,174.775239305477
COL0111,COLERIDGE,30,Central Canterbury (Orion New Zealand),USI,-43.3637656002231,171.527121928992
COL0661,COLERIDGE,,,USI,-43.3637656002231,171.527121928992
CPK0111,Central Park,23,Wellington (Wellington Electricity),LNI,-41.3005866498876,174.769504771236
CPK0331,Central Park,23,Wellington (Wellington Electricity),LNI,-41.3005866498876,174.769504771236
CPP0111,Central Park,4,Auckland (Vector),UNI,-36.9043409403275,174.816231733156
CRN0011,51 CORINTHIAN DRIVE PROPERTY,3,Waitemata (Vector),UNI,-36.7319354227784,174.71456855057
CSE0011,66-86 Jervois Quay,23,Wellington (Wellington Electricity),LNI,-41.2879340327628,174.77810715449
CST0331,CARRINGTON ST,19,Taranaki (Powerco),LNI,-39.081209281577,174.087188263039
CUL0331,CULVERDEN,29,North Canterbury (MainPower NZ),USI,-42.7186360008485,172.876220210223
CUL0661,Culverden,29,North Canterbury (MainPower NZ),USI,-42.7186360008485,172.876220210223
CYD0331,CLYDE,35,Central Otago (Aurora Energy),LSI,-45.1803905106967,169.306224442661
CYD2201,CLYDE,35,Central Otago (Aurora Energy),LSI,-45.1803905106967,169.306224442661
DOB0331,DOBSON,28,West Coast (Westpower),USI,-42.4532094235436,171.300941049284
DSH0011,DRESS-SMART HORNBY,30,Central Canterbury (Orion New Zealand),USI,-43.5364751569868,172.511818053536
DSO0011,DRESS-SMART ONEHUNGA,4,Auckland (Vector),UNI,-36.9043409403275,174.816231733156
DST0011,Outlet City 24 Main Road Tawa,23,Wellington (Wellington Electricity),LNI,-41.1832133160004,174.825429385346
DVK0111,DANNEVIRKE,17,Southern Hawke's Bay (Scanpower),LNI,-40.1901029045316,176.030768714358
EDG0331,EDGECUMBE,12,Eastern Bay of Plenty (Horizon Energy),CNI,-37.9872585524475,176.828882677847
EDN0331,EDENDALE,38,Southland (The Power Company),LSI,-46.3114526935432,168.778270760072
EKV0011,Kerikeri Retirement Village,1,Bay of Islands (Top Energy),UNI,-35.3961364282183,173.810400071441
ELL0111,Elles Rd,39,Invercargill (Electricity Invercargill),LSI,-46.4272011309024,168.361453270525
EMA0011,ESD ROCK SHOP MANNERS STREET,23,Wellington (Wellington Electricity),LNI,-41.3005690101212,174.76948040614
EMB0011,I-Centre 44-50 Manners St,23,Wellington (Wellington Electricity),LNI,-41.3005690101212,174.76948040614
EMT0011,164 THE TERRACE,23,Wellington (Wellington Electricity),LNI,-41.2852379386049,174.773627611519
EMV0011,Mayfair Retirement Village,3,Waitemata (Vector),UNI,-36.7126346528478,174.72471924962
ENB0011,NZX Building,23,Wellington (Wellington Electricity),LNI,-41.258626227828,174.75982495281
EPC0011,Peninsula Club R/V Whangaparaoa,3,Waitemata (Vector),UNI,-36.6225960961432,174.718494879668
ERF0011,74 RIDDIFORD STREET WELLINGTON,23,Wellington (Wellington Electricity),LNI,-41.3102808945769,174.778690497077
ESC0011,Eastgate Shopping Centre,30,Central Canterbury (Orion New Zealand),USI,-43.5323555404098,172.698098408458
ESG0011,STADIUM GARDEN APARTMENTS,23,Wellington (Wellington Electricity),LNI,-41.2750276335827,174.783284702748
ETC0011,Spark Central 72-80 Boulcott,23,Wellington (Wellington Electricity),LNI,-41.2867034511554,174.77496893649
ETT0011,EDCL 28 Torrens Terrace,23,Wellington (Wellington Electricity),LNI,-41.3005690101212,174.76948040614
EVA0011,ESDP Sovereign House,23,Wellington (Wellington Electricity),LNI,-41.258626227828,174.75982495281
FHL0331,FERNHILL,15,Hawke's Bay (Unison Networks),CNI,-39.599306970124,176.762556624415
FKN0331,FRANKTON,34,Queenstown (Aurora Energy),LSI,-45.0103844659005,168.740274830692
FLG0111,FLAGSHIP,4,Auckland (Vector),UNI,-36.9877921634968,174.884594071861
FND0112,Founders,24,Nelson (Nelson Electricity),USI,-41.2617233782959,173.296903270556
FSH0011,Fanshawe Street,4,Auckland (Vector),UNI,-36.9043409403275,174.816231733156
GFD0331,Gracefield,23,Wellington (Wellington Electricity),LNI,-41.2402884665067,174.91709925074
GLN0331,GLENBROOK,5,Counties (Counties Power),UNI,-37.2048396093126,174.732478664612
GLN0332,GLENBROOK,5,Counties (Counties Power),UNI,-37.2048396093126,174.732478664612
GOR0331,GORE,38,Southland (The Power Company),LSI,-46.1150913561286,168.911652182194
GRE0111,TUIHANA,10,Tauranga (Powerco),CNI,-37.6778805985214,176.214234182295
GYM0661,GREYMOUTH,28,West Coast (Westpower),USI,-42.4548930714435,171.214441427491
GYT0331,GREYTOWN,18,Wairarapa (Powerco),LNI,-41.1182406726764,175.437283776226
HAM0111,HAMILTON,7,Waikato (WEL Networks),CNI,-37.7792581144679,175.304582950714
HAM0331,HAMILTON,7,Waikato (WEL Networks),CNI,-37.7792581144679,175.304582950714
HAM0551,HAMILTON,7,Waikato (WEL Networks),CNI,-37.7792581144679,175.304582950714
HAY0111,Haywards,23,Wellington (Wellington Electricity),LNI,-41.1500103084701,174.981913640661
HAY0331,Haywards,23,Wellington (Wellington Electricity),LNI,-41.1500103084701,174.981913640661
HBS0011,1 Hobson St Auckland,4,Auckland (Vector),UNI,-36.9043409403275,174.816231733156
HEN0331,HENDERSON,3,Waitemata (Vector),UNI,-36.8411255154882,174.617521302395
HEP0331,HEPBURN ROAD,3,Waitemata (Vector),UNI,-36.8859379441813,174.660230707118
HER0111,HERITAGE ESTATE,38,Southland (The Power Company),LSI,-45.4073407774008,167.715878117695
HGH0011,Highbury Shopping Centre,3,Waitemata (Vector),UNI,-36.738974281338,174.690691250228
HIN0331,HINUERA,6,Thames Valley (Powerco),CNI,-37.9196258375322,175.765356890015
HKK0661,HOKITIKA,28,West Coast (Westpower),USI,-42.7247938449395,170.982950316262
HLY0331,Huntly,7,Waikato (WEL Networks),CNI,-37.5415876196993,175.151813110399
HLY2201,HUNTLY,7,Waikato (WEL Networks),CNI,-37.5415876196993,175.151813110399
HMB0111,HALF MOON BAY,4,Auckland (Vector),UNI,-36.9259447969156,174.906566934103
HOB1101,HOBSON STREET,4,Auckland (Vector),UNI,-36.8483682558568,174.761735212445
HOR0331,HORORATA,30,Central Canterbury (Orion New Zealand),USI,-43.5456462223766,171.981117730461
HOR0661,HORORATA,30,Central Canterbury (Orion New Zealand),USI,-43.5456462223766,171.981117730461
HTI0331,HANGATIKI,9,King Country (The Lines Company),CNI,-38.2513632603515,175.177955927364
HTI1101,Hangatiki,9,King Country (The Lines Company),CNI,-38.2513632603515,175.177955927364
HUI0331,HUIRANGI,19,Taranaki (Powerco),LNI,-39.0434201452718,174.237031914352
HUL0111,HULME PLACE,3,Waitemata (Vector),UNI,-36.8860901873195,174.660301329964
HVN0331,HAVEN RD,24,Nelson (Nelson Electricity),USI,-41.3146066715682,173.243774238296
HWA0331,HAWERA,19,Taranaki (Powerco),LNI,-39.5664965046386,174.310116683419
HWA0332,KUPE GAS FIELD,19,Taranaki (Powerco),LNI,-39.5664965046386,174.310116683419
HWA1101,HAWERA,,,LNI,-39.5664965046386,174.310116683419
HWA1102,HAWERA,19,Taranaki (Powerco),LNI,-39.5664965046386,174.310116683419
HWB0331,HALFWAY BUSH,37,Dunedin (Aurora Energy),LSI,-45.8548742886157,170.475699578603
INV0331,INVERCARGILL,39,Invercargill (Electricity Invercargill),LSI,-46.3925872381752,168.393116651823
ISL0331,ISLINGTON,30,Central Canterbury (Orion New Zealand),USI,-43.5364931648177,172.511817908258
ISL0661,ISLINGTON,30,Central Canterbury (Orion New Zealand),USI,-43.5364931648177,172.511817908258
JEF0111,JEFFS ROAD,4,Auckland (Vector),UNI,-36.9546839056217,174.862518098462
KAI0111,KAIAPOI,29,North Canterbury (MainPower NZ),USI,-43.3815739493184,172.637935742546
KAW0111,KAWERAU,12,Eastern Bay of Plenty (Horizon Energy),CNI,-38.0767289039462,176.722383861847
KAW0112,KAWERAU,12,Eastern Bay of Plenty (Horizon Energy),CNI,-38.0767289039462,176.722383861847
KAW0113,KAWERAU,12,Eastern Bay of Plenty (Horizon Energy),CNI,-38.0767289039462,176.722383861847
KAW1101,KAWERAU GEOTHERMAL,12,Eastern Bay of Plenty (Horizon Energy),CNI,-38.0767289039462,176.722383861847
KBY0661,KIMBERLEY,30,Central Canterbury (Orion New Zealand),USI,-43.456404506824,172.098991278078
KBY0662,KIMBERLEY,30,Central Canterbury (Orion New Zealand),USI,-43.456404506824,172.098991278078
KCA0011,Penrod House,4,Auckland (Vector),UNI,-36.9043409403275,174.816231733156
KCH0011,KIWI CENTREPLACE WEST,7,Waikato (WEL Networks),CNI,-37.7792403246451,175.304571044516
KCH0012,KIWI CENTREPLACE EAST,7,Waikato (WEL Networks),CNI,-37.7792403246451,175.304571044516
KCH0014,KIWI CENTREPLACE TOWER,7,Waikato (WEL Networks),CNI,-37.7792403246451,175.304571044516
KDH0011,10 WORLEY PLACE,7,Waikato (WEL Networks),CNI,-37.7792403246451,175.304571044516
KFA0111,21 Pitt Street,4,Auckland (Vector),UNI,-36.9138205281412,174.725726389464
KIK0111,KIKIWA,25,Tasman (Network Tasman),USI,-41.6731846354308,172.873942875103
KIN0111,KINLEITH,6,Thames Valley (Powerco),CNI,-38.2724413798012,175.883086765926
KIN0112,KINLEITH,6,Thames Valley (Powerco),CNI,-38.2724413798012,175.883086765926
KIN0113,Kinleith,6,Thames Valley (Powerco),CNI,-38.2724413798012,175.883086765926
KIN0331,KINLEITH,6,Thames Valley (Powerco),CNI,-38.2724413798012,175.883086765926
KIR0111,KIRKDALE,4,Auckland (Vector),UNI,-37.0389635158425,174.933607456501
KMO0331,Kaitemako,10,Tauranga (Powerco),CNI,-37.7397630366451,176.168896985744
KMW0011,KIWI MAJESTIC CENTRE,23,Wellington (Wellington Electricity),LNI,-41.3005690101212,174.76948040614
KNA0011,205 Queen Street Auckland,4,Auckland (Vector),UNI,-36.9138205281412,174.725726389464
KNW0111,North City Shopping Centre,23,Wellington (Wellington Electricity),LNI,-41.1573248311886,174.871524369185
KOE1101,Kaikohe,1,Bay of Islands (Top Energy),UNI,-35.3961619245725,173.810631571789
KPA1101,KAPONGA,19,Taranaki (Powerco),LNI,-39.4293032249971,174.149543872007
KPO1101,KARAPIRO,6,Thames Valley (Powerco),CNI,-37.9243493940182,175.537461493567
KPP0011,KIWI PLAZA,21,Manawatu (Powerco),LNI,-40.2807262852597,175.640338060872
KPU0661,KOPU,6,Thames Valley (Powerco),CNI,-37.1918124609346,175.60183729642
KRA0111,KIWI ROYAL SUN ALLIANCE CENTRE,4,Auckland (Vector),UNI,-36.9138205281412,174.725726389464
KTW0011,KIWI TERTWO,23,Wellington (Wellington Electricity),LNI,-41.258626227828,174.75982495281
KUM0661,KUMARA,28,West Coast (Westpower),USI,-42.6355160288412,171.195551944141
KWA0111,Kaiwharawhara,23,Wellington (Wellington Electricity),LNI,-41.25823775424,174.788533369382
LEV0331,Leven St,39,Invercargill (Electricity Invercargill),LSI,-46.4098128392765,168.345584425066
LFD1101,LICHFIELD,6,Thames Valley (Powerco),CNI,-38.1351280886306,175.824273493058
LFD1102,LICHFIELD,6,Thames Valley (Powerco),CNI,-38.1351280886306,175.824273493058
LMC0011,Lynn Mall,3,Waitemata (Vector),UNI,-36.8860901873195,174.660301329964
LTN0331,LINTON,21,Manawatu (Powerco),LNI,-40.4104520383569,175.631393554087
LTN2201,TURITEA,21,Manawatu (Powerco),LNI,-40.4104520383569,175.631393554087
MAN2201,MANAPOURI,38,Southland (The Power Company),LSI,-45.5208682629063,167.277499839442
MAT1101,MATAHINA,12,Eastern Bay of Plenty (Horizon Energy),CNI,-38.113429289268,176.814617066794
MCH0111,MURCHISON,25,Tasman (Network Tasman),USI,-41.7888106299788,172.336920608313
MEP0111,Mokai Energy Park,9,King Country (The Lines Company),CNI,-38.4190990897177,175.800019843423
MEP0112,MOKAI,9,King Country (The Lines Company),CNI,-38.4190990897177,175.800019843423
MEP0113,MOKAI,9,King Country (The Lines Company),CNI,-38.4190990897177,175.800019843423
MGM0331,MANGAMAIRE,21,Manawatu (Powerco),LNI,-40.5173383138819,175.751850439983
MHL0011,MUSEUM HOTEL,23,Wellington (Wellington Electricity),LNI,-41.2918279526096,174.782583858201
MHO0331,MANGAHAO,22,Kapiti and Horowhenua (Electra),LNI,-40.5765752565864,175.448930173114
MKE1101,McKee,19,Taranaki (Powerco),LNI,-39.0893360766405,174.332969104936
MLF0011,Milford Shopping Centre,3,Waitemata (Vector),UNI,-36.738974281338,174.690691250228
MLG0111,Melling,23,Wellington (Wellington Electricity),LNI,-41.200332655434,174.91600395782
MLG0331,Melling,23,Wellington (Wellington Electricity),LNI,-41.200332655434,174.91600395782
MMP0111,MACKENZIE PARK,32,South Canterbury (Alpine Energy),LSI,-44.2786112664261,170.100297899918
MMT0111,MANUKA TERRACE,32,South Canterbury (Alpine Energy),LSI,-44.2786112664261,170.100297899918
MNG0331,MANGERE,4,Auckland (Vector),UNI,-36.9627792733639,174.827626954429
MNG1101,MANGERE,4,Auckland (Vector),UNI,-36.9627792733639,174.827626954429
MNI0111,METHANEX,19,Taranaki (Powerco),LNI,-38.9939099604739,174.288222667156
MPE1101,MAUNGATAPERE,2,Whangarei and Kaipara (Northpower),UNI,-35.766370555424,174.207181692828
MSC0011,MERIDIAN SHOPPING CENTRE,37,Dunedin (Aurora Energy),LSI,-45.8552094350161,170.47538813511
MST0331,MASTERTON,18,Wairarapa (Powerco),LNI,-40.9772735376344,175.611495677456
MTG0111,MANGATANGI,5,Counties (Counties Power),UNI,-37.106876353016,175.209449537932
MTI2201,MARAETAI,9,King Country (The Lines Company),CNI,-38.3527363633469,175.744267461239
MTM0331,MT. MAUNGANUI,10,Tauranga (Powerco),CNI,-37.677902612469,176.214087766306
MTN0331,MARTON,20,Wanganui (Powerco),LNI,-40.1028806264432,175.360656547897
MTO0331,MAUNGATUROTO,2,Whangarei and Kaipara (Northpower),UNI,-36.0866654617863,174.35919071411
MTR0331,MATAROA,20,Wanganui (Powerco),LNI,-39.6578895221964,175.70194294118
MXQ0111,80 Queen Street,4,Auckland (Vector),UNI,-36.9043409403275,174.816231733156
MXS0011,South City Centre,30,Central Canterbury (Orion New Zealand),USI,-43.5389420799012,172.602413021631
NAH0011,139 The Terrace Asteron House,23,Wellington (Wellington Electricity),LNI,-41.258626227828,174.75982495281
NAP2201,Nga Awa Purua,13,Taupo (Unison Networks),CNI,-38.6141081650148,176.179300170578
NAP2202,NGATAMARIKI,13,Taupo (Unison Networks),CNI,-38.6141081650148,176.179300170578
NAT0011,500 Victoria Street Hamilton,7,Waikato (WEL Networks),CNI,-38.650260681946,176.180623219534
NMA0331,NTH MAKAREWA,38,Southland (The Power Company),LSI,-46.3053908844436,168.359526981022
NPK0331,NATIONAL PARK,9,King Country (The Lines Company),CNI,-39.1580381361034,175.39873260281
NPP0011,Prime Property Tower,23,Wellington (Wellington Electricity),LNI,-41.258626227828,174.75982495281
NPS0011,NZAL PSIS Building,23,Wellington (Wellington Electricity),LNI,-41.258626227828,174.75982495281
NSR0011,81 MOLESWORTH STREET,23,Wellington (Wellington Electricity),LNI,-41.2748259285384,174.777691588772
NSY0331,NASEBY,36,Otago (OtagoNet JV),LSI,-45.0331801409809,170.093352985891
NTL0011,Northland Shopping Mall,30,Central Canterbury (Orion New Zealand),USI,-43.4928219911001,172.592116359909
NTO0011,Technology One House,23,Wellington (Wellington Electricity),LNI,-41.258626227828,174.75982495281
NWH0011,WEL House,7,Waikato (WEL Networks),CNI,-37.7792403246451,175.304571044516
OAK0111,OAKLANDS,8,Waipa (Waipa Networks),CNI,-37.8706697177898,175.483920048935
OAM0331,OAMARU,33,Waitaki (Network Waitaki),LSI,-45.0692477515529,170.917322092778
OCB0111,IVC_CB13,39,Invercargill (Electricity Invercargill),LSI,-46.3925872381752,168.393116651823
OHA2201,OHAU A,32,South Canterbury (Alpine Energy),LSI,-44.2658717403481,170.029211643559
OHB2201,OHAU B,33,Waitaki (Network Waitaki),LSI,-44.3018013104628,170.110551103037
OHC2201,OHAU C,33,Waitaki (Network Waitaki),LSI,-44.3435609055791,170.17949166476
OHK2201,OHAKURI,11,Rotorua (Unison Networks),CNI,-38.4079663035152,176.085969143807
OKI2201,OHAAKI,11,Rotorua (Unison Networks),CNI,-38.528048097737,176.292232241982
OKN0111,OHAKUNE,9,King Country (The Lines Company),CNI,-39.4267925811092,175.368103772234
ONG0331,ONGARUE,9,King Country (The Lines Company),CNI,-38.7457269349806,175.181647584917
OPK0331,OPUNAKE,19,Taranaki (Powerco),LNI,-39.3925871469295,173.927327825781
OPT0011,OPTIMATION HOUSE,23,Wellington (Wellington Electricity),LNI,-41.258626227828,174.75982495281
ORO1101,OROWAITI,27,Buller (Buller Electricity),USI,-41.7637106421722,171.633598913218
ORO1102,OROWAITI,27,Buller (Buller Electricity),USI,-41.7637106421722,171.633598913218
OTA0221,OTAHUHU,4,Auckland (Vector),UNI,-36.9547107586536,174.862529983245
OTI0111,OTIRA,28,West Coast (Westpower),USI,-42.8317309671764,171.564781008427
OWH0111,OWHATA,11,Rotorua (Unison Networks),CNI,-38.1299502922218,176.323307032339
PAK0331,PAKURANGA,4,Auckland (Vector),UNI,-36.9259626358099,174.906578604823
PAO1101,PIAKO 110KV,6,Thames Valley (Powerco),CNI,-37.6505055483966,175.560771939473
PAZ0111,ANZ CENTRE,4,Auckland (Vector),UNI,-36.8455326237364,174.764529915801
PEN0221,PENROSE,4,Auckland (Vector),UNI,-36.9045816376724,174.816405790834
PEN0251,Penrose,4,Auckland (Vector),UNI,-36.9045816376724,174.816405790834
PEN0331,PENROSE,4,Auckland (Vector),UNI,-36.9045816376724,174.816405790834
PEN1101,PENROSE,4,Auckland (Vector),UNI,-36.9045816376724,174.816405790834
PFB0011,55 Featherston Street Wellington,23,Wellington (Wellington Electricity),LNI,-41.258626227828,174.75982495281
PHS0011,195 Lambton Quay Wellington,23,Wellington (Wellington Electricity),LNI,-41.2590517979539,174.790632531494
PMH0011,MAYFAIR HOUSE,23,Wellington (Wellington Electricity),LNI,-41.2806044251854,174.775042434221
PMK0011,Morrison Kent House Wellington,23,Wellington (Wellington Electricity),LNI,-41.258626227828,174.75982495281
PNI0331,Pauatahanui,23,Wellington (Wellington Electricity),LNI,-41.1096800332905,174.918891104282
POR0111,Porchester Road,4,Auckland (Vector),UNI,-37.0389635158425,174.933607456501
PPI2201,POIHIPI,13,Taupo (Unison Networks),CNI,-38.629772226283,176.041253165177
PPT0011,PWC TOWER 113 THE TERRACE WLG,23,Wellington (Wellington Electricity),LNI,-38.6123011495997,176.055166273882
PPW0011,PWC TOWER,4,Auckland (Vector),UNI,-36.8432675427428,174.765318941817
PRM0331,PARAPARAUMU,22,Kapiti and Horowhenua (Electra),LNI,-40.9253785096644,175.012332722255
PSI0011,STATE INSURANCE TOWER,23,Wellington (Wellington Electricity),LNI,-41.2867098348447,174.776306561714
PSP0011,151 QUEEN STREET,4,Auckland (Vector),UNI,-36.8471209852011,174.765609426208
PTC0011,125 THE TERRACE,23,Wellington (Wellington Electricity),LNI,-41.2833337637123,174.775032828641
PVG0011,VODAFONE ON THE QUAY,23,Wellington (Wellington Electricity),LNI,-41.2823561919453,174.77651086443
PZH0011,ZURICH HOUSE,4,Auckland (Vector),UNI,-36.8444122236633,174.766534016535
RDF0331,REDCLYFFE,15,Hawke's Bay (Unison Networks),CNI,-39.5515612537708,176.821844789115
RFB0011,FORSYTH BARR,4,Auckland (Vector),UNI,-36.8471293698571,174.768682542997
RFN1101,REEFTON,28,West Coast (Westpower),USI,-42.0822780528681,171.845806426697
RFN1102,REEFTON,28,West Coast (Westpower),USI,-42.0822780528681,171.845806426697
RFO0011,41 Shortland Street Auckland,4,Auckland (Vector),UNI,-36.8470437673773,174.767772152695
RNC0011,NEILSEN CENTRE,3,Waitemata (Vector),UNI,-36.7855955219958,174.773441450482
ROM0011,Royal Oak Mall,4,Auckland (Vector),UNI,-36.9043409403275,174.816231733156
ROS0221,MT. ROSKILL,4,Auckland (Vector),UNI,-36.9138385490631,174.725726795576
ROS1101,MT. ROSKILL,4,Auckland (Vector),UNI,-36.9138385490631,174.725726795576
ROT0111,ROTORUA,11,Rotorua (Unison Networks),CNI,-38.1482501499564,176.227040927696
ROT0331,ROTORUA,11,Rotorua (Unison Networks),CNI,-38.1482501499564,176.227040927696
ROT1101,ROTORUA,,,CNI,-38.1482501499564,176.227040927696
ROX1101,ROXBURGH,35,Central Otago (Aurora Energy),LSI,-45.4772129117228,169.319136074459
ROX2201,ROXBURGH,35,Central Otago (Aurora Energy),LSI,-45.4772129117228,169.319136074459
RPO2201,RANGIPO,9,King Country (The Lines Company),CNI,-39.1531940904612,175.83744312216
RSC0011,Robt Jones Southern Cross Buildi,4,Auckland (Vector),UNI,-36.9043409403275,174.816231733156
RTB0011,TELCO BUILDING,4,Auckland (Vector),UNI,-36.9043409403275,174.816231733156
RYN0111,RYAN PLACE,4,Auckland (Vector),UNI,-36.9877921634968,174.884594071861
SBK0661,SOUTHBROOK,29,North Canterbury (MainPower NZ),USI,-43.3273438689438,172.598701763462
SDN0331,SOUTH DUNEDIN,37,Dunedin (Aurora Energy),LSI,-45.8907568335415,170.507496061464
SFD0331,STRATFORD,19,Taranaki (Powerco),LNI,-39.3341507474439,174.320457756666
SFD2201,STRATFORD,19,Taranaki (Powerco),LNI,-39.3341507474439,174.320457756666
SML0111,SMALES FARM,3,Waitemata (Vector),UNI,-36.738974281338,174.690691250228
SOH0011,SoHo Apartments,23,Wellington (Wellington Electricity),LNI,-41.3005690101212,174.76948040614
SOU0331,Southern Sub,39,Invercargill (Electricity Invercargill),LSI,-46.3925872381752,168.393116651823
STD0111,Stead St,39,Invercargill (Electricity Invercargill),LSI,-46.3925872381752,168.393116651823
STG0111,SOUTHGATE,3,Waitemata (Vector),UNI,-36.2850348329481,174.51329539143
STK0331,STOKE,24,Nelson (Nelson Electricity),USI,-41.3149414710111,173.24305864003
STK0661,STOKE,25,Tasman (Network Tasman),USI,-41.3149414710111,173.24305864003
STL0011,The Sentinel,3,Waitemata (Vector),UNI,-36.738974281338,174.690691250228
STU0111,STUDHOLME,32,South Canterbury (Alpine Energy),LSI,-44.732286337975,171.13738310351
SVL0331,SILVERDALE,3,Waitemata (Vector),UNI,-36.6235464658458,174.683503106342
SWN0251,NZ Rail Southdown,4,Auckland (Vector),UNI,-36.9303919726166,174.814290009234
SWN2201,SOUTHDOWN,4,Auckland (Vector),UNI,-36.9303919726166,174.814290009234
SYL0113,SYLVIA PARK,4,Auckland (Vector),UNI,-36.9043409403275,174.816231733156
TAK0331,TAKANINI,4,Auckland (Vector),UNI,-37.0389905435131,174.933608142129
TBE0011,2-16 TAKU TAI SQUARE,4,Auckland (Vector),UNI,-36.8447326109067,174.769838510263
TCA0011,CENTURY CITY APARTMENTS,23,Wellington (Wellington Electricity),LNI,-41.2910138961784,174.775229107382
TCD0011,Chaffers Dock,23,Wellington (Wellington Electricity),LNI,-41.2911856110643,174.785671377805
TCL0011,CHEWS LANE APARTMENTS,23,Wellington (Wellington Electricity),LNI,-41.2875146423226,174.776101503856
TET0011,EAGLE TECHNOLOGY HOUSE,23,Wellington (Wellington Electricity),LNI,-41.2911158602603,174.775625969598
TFJ0011,FUJITSU TOWER 141 THE TERRACE,23,Wellington (Wellington Electricity),LNI,-41.2844169404981,174.77488307366
TGA0111,TAURANGA,10,Tauranga (Powerco),CNI,-37.7277158865182,176.130869450065
TGA0331,TAURANGA,10,Tauranga (Powerco),CNI,-37.7277158865182,176.130869450065
TGC0011,THE GRAND ARCADE,23,Wellington (Wellington Electricity),LNI,-41.2866168965705,174.775324835739
TGT0011,Guardian Trust Building,23,Wellington (Wellington Electricity),LNI,-41.2868226148996,174.777169413438
THI2201,TE MIHI,13,Taupo (Unison Networks),CNI,-38.6169522809727,176.043329412805
THS0011,THE HSBC TOWER,30,Central Canterbury (Orion New Zealand),USI,-43.5308701829967,172.639184883095
TIM0111,TIMARU,32,South Canterbury (Alpine Energy),LSI,-44.3726354199416,171.230282702802
TKA0111,Tekapo A,32,South Canterbury (Alpine Energy),LSI,-44.0138071096166,170.460853384948
TKA0331,TEKAPO A,32,South Canterbury (Alpine Energy),LSI,-44.0138071096166,170.460853384948
TKB2201,Tekapo B,32,South Canterbury (Alpine Energy),LSI,-44.1251612802158,170.211747584785
TKM0011,The Karori Mall,23,Wellington (Wellington Electricity),LNI,-41.2845707224192,174.737654695395
TKR0331,Takapu Road,23,Wellington (Wellington Electricity),LNI,-41.1573412885958,174.871620180791
TKU0331,TOKAANU,9,King Country (The Lines Company),CNI,-38.9817213232574,175.770224473007
TKU2201,TOKAANU,9,King Country (The Lines Company),CNI,-38.9817213232574,175.770224473007
TMI0331,TE MATAI,10,Tauranga (Powerco),CNI,-37.816878718062,176.339563367106
TMK0331,TEMUKA,32,South Canterbury (Alpine Energy),LSI,-44.2236350425455,171.292244844327
TML0011,1 MARKET LANE WELLINGTON,23,Wellington (Wellington Electricity),LNI,-41.2904297563139,174.779225851865
TMN0011,6-8 Munroe Lane,3,Waitemata (Vector),UNI,-38.8891665949511,175.32688630594
TMN0551,TAUMARUNUI,9,King Country (The Lines Company),CNI,-38.8891665949511,175.32688630594
TMP0011,Metlife Pohutukawa AKL,4,Auckland (Vector),UNI,-43.5243566178612,172.467689680362
TMU0111,TE AWAMUTU,8,Waipa (Waipa Networks),CNI,-38.0021424587171,175.320165458345
TNG0111,TANGIWAI,9,King Country (The Lines Company),CNI,-39.4654025686521,175.57255738013
TNG0551,TANGIWAI,9,King Country (The Lines Company),CNI,-39.4654025686521,175.57255738013
TOM0011,226-240 Ormiston Rd Flatbush,4,Auckland (Vector),UNI,-37.6746833180851,176.223753868769
TOR0011,49 TORY STREET WELLINGTON,23,Wellington (Wellington Electricity),LNI,-41.294408581095,174.78112543715
TPM0011,THE PIERMONT/MONUMENT APARTMENTS,23,Wellington (Wellington Electricity),LNI,-41.2912527136464,174.78192330722
TPS0011,The Palms,30,Central Canterbury (Orion New Zealand),USI,-43.5323555404098,172.698098408458
TQB0011,51 WEBB STREET,23,Wellington (Wellington Electricity),LNI,-41.2978633722854,174.773217257268
TQS0011,246 QUEEN STREET AUCKLAND,4,Auckland (Vector),UNI,-36.8499368838994,174.76536016549
TQS0012,125 Queen Street Auckland,4,Auckland (Vector),UNI,-36.8499368838994,174.76536016549
TQW0011,CLYDE QUAY WHARF,23,Wellington (Wellington Electricity),LNI,-41.2901452188264,174.785965438485
TRC0011,THE ROSKILL CENTRE,4,Auckland (Vector),UNI,-36.9082659658372,174.733929489188
TRK0111,TARUKENGA,11,Rotorua (Unison Networks),CNI,-38.0738377749748,176.159634078065
TRT0011,REPUBLIC BUILDING,23,Wellington (Wellington Electricity),LNI,-41.29533822976,174.782165897725
TSG0011,THE SOUTHGATE MALL,4,Auckland (Vector),UNI,-37.0237721711277,174.899859735267
TSN0011,79 QUEEN STREET,4,Auckland (Vector),UNI,-36.8455617060536,174.766212807967
TTC0011,THE CUBE,23,Wellington (Wellington Electricity),LNI,-41.2985613603735,174.775266597245
TTH0011,THE HUB 398 MAIN SOUTH ROAD,30,Central Canterbury (Orion New Zealand),USI,-43.5433821055848,172.54472572339
TTT0011,TOURISM & TRAVEL HOUSE,23,Wellington (Wellington Electricity),LNI,-41.286459453342,174.774436896421
TUI1101,TUIA FOR EAST,14,Eastland (Eastland Network),CNI,-38.8053542166733,177.151398921204
TVT0011,VICTORIA ST AUCKLAND,4,Auckland (Vector),UNI,-45.5379407396507,169.322612368861
TWC2201,NZ Windfarms,21,Manawatu (Powerco),LNI,-40.3542672105584,175.773710004444
TWH0331,TE KOWHAI,7,Waikato (WEL Networks),CNI,-37.738327273869,175.154138789807
TWI2201,TIWAI POINT,38,Southland (The Power Company),LSI,-46.5897623822384,168.392604690469
TWZ0331,TWIZEL,32,South Canterbury (Alpine Energy),LSI,-44.2786289314989,170.100284499162
UHT0331,Upper Hutt,23,Wellington (Wellington Electricity),LNI,-41.0995538165816,175.094264944639
URK0111,UPPER RAKAIA,30,Central Canterbury (Orion New Zealand),USI,-43.3637439416442,171.526838598742
VGH0011,GHD CENTRE,4,Auckland (Vector),UNI,-36.8505265711569,174.752924455356
WAB0011,WESTFIELD ALBANY,3,Waitemata (Vector),UNI,-36.738974281338,174.690691250228
WAI0111,WAIOTAHI,12,Eastern Bay of Plenty (Horizon Energy),CNI,-38.0252500612102,177.192307929493
WAI0501,WAIOTAHI,12,Eastern Bay of Plenty (Horizon Energy),CNI,-38.0252500612102,177.192307929493
WCW0011,WESTFEILD CHARTWELL,7,Waikato (WEL Networks),CNI,-37.7792403246451,175.304571044516
WCW0111,WESTFEILD CHARTWELL,7,Waikato (WEL Networks),CNI,-37.7792403246451,175.304571044516
WDV0111,WOODVILLE,17,Southern Hawke's Bay (Scanpower),LNI,-40.3154568372168,175.85606683278
WDV1101,WOODVILLE,17,Southern Hawke's Bay (Scanpower),LNI,-40.3154568372168,175.85606683278
WEL0331,WELLSFORD,3,Waitemata (Vector),UNI,-36.2847627712293,174.513423750204
WFL0011,WESTFIELD MANUKAU,4,Auckland (Vector),UNI,-36.9877921634968,174.884594071861
WGF0011,GLENFIELD SHOPPING CENTRE,3,Waitemata (Vector),UNI,-36.738974281338,174.690691250228
WGN0331,WANGANUI,20,Wanganui (Powerco),LNI,-39.9381625941986,175.119168527099
WGT0011,WESTGATE TOWN CENTRE,3,Waitemata (Vector),UNI,-36.8221245953119,174.610226055495
WHI0111,WHIRINAKI,15,Hawke's Bay (Unison Networks),CNI,-39.3820619808998,176.886767473141
WHI2201,WHIRINAKI,15,Hawke's Bay (Unison Networks),CNI,-39.3820619808998,176.886767473141
WHU0331,WAIHOU,6,Thames Valley (Powerco),CNI,-37.5692370544935,175.683069678802
WIL0331,Wilton,23,Wellington (Wellington Electricity),LNI,-41.2583961479009,174.759556174567
WIR0331,WIRI,4,Auckland (Vector),UNI,-36.9878101826148,174.884594516539
WKM0331,WHAKAMARU,9,King Country (The Lines Company),CNI,-38.4190818804716,175.800362745278
WKM2201,WHAKAMARU,9,King Country (The Lines Company),CNI,-38.4190818804716,175.800362745278
WKO0331,WAIKINO,6,Thames Valley (Powerco),CNI,-37.4158957054773,175.774721499979
WNF0011,Westfield Nuffield Street,4,Auckland (Vector),UNI,-36.870943565556,174.778296132408
WPA2201,WAIPAPA,8,Waipa (Waipa Networks),CNI,-38.2916608998556,175.683407829782
WPG0331,WAIPORI GENERATION,37,Dunedin (Aurora Energy),LSI,-45.8552094350161,170.47538813511
WPK0011,WESTFIELD PAKURANGA,4,Auckland (Vector),UNI,-36.9259447969156,174.906566934103
WPR0331,WAIPARA,29,North Canterbury (MainPower NZ),USI,-43.0518991667489,172.75608957522
WPR0661,WAIPARA,29,North Canterbury (MainPower NZ),USI,-43.0518991667489,172.75608957522
WPV0061,WAIPORI VILLAGE,37,Dunedin (Aurora Energy),LSI,-45.9054974719829,169.985222665559
WPW0331,WAIPAWA,16,Central Hawke's Bay (Centralines),LNI,-39.9186877787997,176.446973381731
WQG0011,WESTFIELD QUEENSGATE,23,Wellington (Wellington Electricity),LNI,-41.2003240493171,174.915979855379
WRD0331,WAIRAU ROAD,3,Waitemata (Vector),UNI,-36.7806434266969,174.746893877626
WRK0331,WAIRAKEI,13,Taupo (Unison Networks),CNI,-38.6257056024709,176.105463252824
WRK2201,WAIRAKEI,13,Taupo (Unison Networks),CNI,-38.6257056024709,176.105463252824
WRN0011,WESTFIELD RICCARTON,30,Central Canterbury (Orion New Zealand),USI,-43.5389420799012,172.602413021631
WRN0012,Westfield Riccarton,30,Central Canterbury (Orion New Zealand),USI,-43.5389420799012,172.602413021631
WRN0111,WESTFIELD RICCARTON,30,Central Canterbury (Orion New Zealand),USI,-43.5389420799012,172.602413021631
WSC0011,WESTFIELD SHORE CITY,3,Waitemata (Vector),UNI,-36.738974281338,174.690691250228
WSL0111,WESTFIELD ST LUKES,4,Auckland (Vector),UNI,-36.9138205281412,174.725726389464
WTK0111,WAITAKI,33,Waitaki (Network Waitaki),LSI,-44.6920993129633,170.429028807013
WTK0331,WAITAKI,33,Waitaki (Network Waitaki),LSI,-44.6920993129633,170.429028807013
WTS0011,WESTFIELD TWO DOUBLE SEVEN,4,Auckland (Vector),UNI,-36.9043409403275,174.816231733156
WTU0331,WHAKATU,15,Hawke's Bay (Unison Networks),CNI,-39.6062657648916,176.881314409456
WVY0111,WAVERLEY,20,Wanganui (Powerco),LNI,-39.7540973803098,174.635502581871
WVY1101,WAVERLEY,20,Wanganui (Powerco),LNI,-39.7540973803098,174.635502581871
WWC0011,WESTFIELD WESTCITY,3,Waitemata (Vector),UNI,-36.8860901873195,174.660301329964
WWD1102,Westwind,23,Wellington (Wellington Electricity),LNI,-41.2956178347852,174.660496103937
WWD1103,Westwind,23,Wellington (Wellington Electricity),LNI,-41.2956178347852,174.660496103937
AAL0331,AUCKLAND AIRPORT,4,Auckland (Vector),UNI,-36.9627524165694,174.827615080386
ADD0111,ADDINGTON,30,Central Canterbury (Orion New Zealand),USI,-43.5389600879448,172.602412903302
ADD0661,ADDINGTON,30,Central Canterbury (Orion New Zealand),USI,-43.5389600879448,172.602412903302
AHA0111,ARAHURA,28,West Coast (Westpower),USI,-42.6903629014257,171.000666663309
ANA0111,AROHENA,9,King Country (The Lines Company),CNI,-38.1921326878807,175.628145196791
AOT0111,AOTEA,23,Wellington (Wellington Electricity),LNI,-41.1573248311886,174.871524369185
ASB0331,ASHBURTON,31,Ashburton (Electricity Ashburton),USI,-43.9416371186942,171.80214899733
ATU1101,ATARAU,28,West Coast (Westpower),USI,-42.3354639239065,171.495195203658
BAN0111,Bainfield Rd,39,Invercargill (Electricity Invercargill),LSI,-46.3754778613997,168.353203537959
BEN0162,BENMORE,33,Waitaki (Network Waitaki),LSI,-44.5655962959538,170.193570606646
BEN0163,BENMORE,33,Waitaki (Network Waitaki),LSI,-44.5655962959538,170.193570606646
BFT0111,Belfast,30,Central Canterbury (Orion New Zealand),USI,-43.4928219911001,172.592116359909
BRY0111,BROMLEY,30,Central Canterbury (Orion New Zealand),USI,-43.5323735486582,172.698098318627
CBE0331,CAIRNBRAE,31,Ashburton (Electricity Ashburton),USI,-43.6679970412398,171.685924348287
CFM0011,FMG House,21,Manawatu (Powerco),LNI,-40.410443574972,175.631369656226
COB0661,COBB,25,Tasman (Network Tasman),USI,-41.0863749002113,172.732640204179
CST0111,CARRINGTON ST,19,Taranaki (Powerco),LNI,-39.081209281577,174.087188263039
CWL0111,CHARTWELL SQUARE,7,Waikato (WEL Networks),CNI,-37.7504046861183,175.279048194322
DAR0111,DARGAVILLE,2,Whangarei and Kaipara (Northpower),UNI,-35.9328819091759,173.878930914553
EDA0011,Crombie Lockwood Building,23,Wellington (Wellington Electricity),LNI,-41.3005690101212,174.76948040614
ELD0111,ELDONWOOD,6,Thames Valley (Powerco),CNI,-37.8216936998054,175.762548042165
EQV0011,QV House,23,Wellington (Wellington Electricity),LNI,-41.258626227828,174.75982495281
ETA0011,ESDP WILD LIFE HOUSE,23,Wellington (Wellington Electricity),LNI,-41.2941822512025,174.780617677049
FND0111,Founders,24,Nelson (Nelson Electricity),USI,-41.2617233782959,173.296903270556
GID0221,GOODE,4,Auckland (Vector),UNI,-36.9547107586536,174.862529983245
GIS0111,GISBORNE,14,Eastland (Eastland Network),CNI,-38.6440892592983,178.026328592557
GIS0501,GISBORNE,14,Eastland (Eastland Network),CNI,-38.6440892592983,178.026328592557
HPD0331,HUNTINGTON PARK,4,Auckland (Vector),UNI,-36.738974281338,174.690691250228
HWB0332,HALFWAY BUSH,37,Dunedin (Aurora Energy),LSI,-45.8548742886157,170.475699578603
HWB1101,HALF WAY BUSH,36,Otago (OtagoNet JV),LSI,-45.8548742886157,170.475699578603
KCH0013,KIWI CENTREPLACE RANK ZEROX,7,Waikato (WEL Networks),CNI,-37.7792403246451,175.304571044516
KDA0011,KIWI DOWNTOWN ANNEX,7,Waikato (WEL Networks),CNI,-37.7792403246451,175.304571044516
KEN0331,KENSINGTON,2,Whangarei and Kaipara (Northpower),UNI,-35.7028213733433,174.311206087163
KKA0331,KAIKOURA,29,North Canterbury (MainPower NZ),USI,-42.4001475232396,173.668311807617
KOE0331,KAIKOHE,1,Bay of Islands (Top Energy),UNI,-35.3961619245725,173.810631571789
KOW0011,KIWI TERONE,23,Wellington (Wellington Electricity),LNI,-41.2590517979539,174.790632531494
KPC0011,KIWI PRICE WATERHOUSE BLG,30,Central Canterbury (Orion New Zealand),USI,-43.5389420799012,172.602413021631
KSA0011,KIWI STATE INSURANCE,4,Auckland (Vector),UNI,-36.8533311564314,174.767434680557
KTA0331,KAITAIA,1,Bay of Islands (Top Energy),UNI,-35.1211590951474,173.33623757162
LYN0111,LYNLEY PARK,10,Tauranga (Powerco),CNI,-37.652360986504,176.029346174635
MAT1102,MATAHINA,12,Eastern Bay of Plenty (Horizon Energy),CNI,-38.113429289268,176.814617066794
MDN0141,MARSDEN,2,Whangarei and Kaipara (Northpower),UNI,-35.8758668524808,174.466948063018
MDN0142,MARSDEN C,2,Whangarei and Kaipara (Northpower),UNI,-35.8758668524808,174.466948063018
MDN1101,MARSDEN,2,Whangarei and Kaipara (Northpower),UNI,-35.8758668524808,174.466948063018
MER0331,MEREMERE,7,Waikato (WEL Networks),CNI,-37.3148516329867,175.068488683085
MHI0111,Matingarahi Road,5,Counties (Counties Power),UNI,-37.1886804624359,175.000087126409
MLN0661,MIDDLETON,30,Central Canterbury (Orion New Zealand),USI,-43.5408778051891,172.567631094238
MLN0664,MIDDLETON,30,Central Canterbury (Orion New Zealand),USI,-43.5408778051891,172.567631094238
MOT0111,MOTUEKA,25,Tasman (Network Tasman),USI,-41.1377050484623,172.980232644782
MPE0331,MAUNGATAPERE,2,Whangarei and Kaipara (Northpower),UNI,-35.766370555424,174.207181692828
MPI0331,MOTUPIPI,25,Tasman (Network Tasman),USI,-40.8603802730198,172.842973496388
MPI0661,MOTUPIPI,25,Tasman (Network Tasman),USI,-40.8603802730198,172.842973496388
MRA0111,MOTUROA,19,Taranaki (Powerco),LNI,-39.0648479547246,174.040494816903
MRR0111,MAROTIRI,9,King Country (The Lines Company),CNI,-38.548934364818,175.821916852278
MTI0111,MARAETAI,9,King Country (The Lines Company),CNI,-38.3527363633469,175.744267461239
MTM0111,MT. MAUNGANUI,10,Tauranga (Powerco),CNI,-37.677902612469,176.214087766306
NCP0011,North City Plaza,23,Wellington (Wellington Electricity),LNI,-41.1360009480976,174.840441775169
NPL0331,NEW PLYMOUTH,19,Taranaki (Powerco),LNI,-39.0583106943782,174.026749393671
NPL1101,NEW PLYMOUTH,19,Taranaki (Powerco),LNI,-39.0583106943782,174.026749393671
NPL2201,NEW PLYMOUTH,19,Taranaki (Powerco),LNI,-39.0583106943782,174.026749393671
OKI0111,OHAAKI,11,Rotorua (Unison Networks),CNI,-38.528048097737,176.292232241982
OTA1101,OTAHUHU,4,Auckland (Vector),UNI,-36.9547107586536,174.862529983245
OTA1102,OTAHUHU,4,Auckland (Vector),UNI,-36.9547107586536,174.862529983245
OTA2202,OTAHUHU,4,Auckland (Vector),UNI,-36.9547107586536,174.862529983245
PAL0331,PALMERSTON,36,Otago (OtagoNet JV),LSI,-45.4856811419821,170.68701693598
PAP0111,PAPANUI,30,Central Canterbury (Orion New Zealand),USI,-43.4928309951834,172.59211629931
PAP0661,PAPANUI,30,Central Canterbury (Orion New Zealand),USI,-43.4928309951834,172.59211629931
PAW0111,PARAWERA,13,Taupo (Unison Networks),CNI,-38.6256882146468,176.105439533333
PDH0011,DELOITTE HOUSE,23,Wellington (Wellington Electricity),LNI,-41.2835490172509,174.777426855392
PFT0011,PHILLIPS FOX TOWER,4,Auckland (Vector),UNI,-36.8491107611119,174.765150504327
PHB0011,Harcourts Building,23,Wellington (Wellington Electricity),LNI,-41.2590517979539,174.790632531494
POR0221,Portage Road,4,Auckland (Vector),UNI,-37.0389635158425,174.933607456501
RFT0111,REEFTON,28,West Coast (Westpower),USI,-42.0822781744545,171.845818514551
ROB1101,ROBERTSON STREET,27,Buller (Buller Electricity),USI,-41.7648347139232,171.610922319689
RPE0331,REDOUBT PARK,4,Auckland (Vector),UNI,-36.9878101826148,174.884594516539
SBK0331,SOUTHBROOK,29,North Canterbury (MainPower NZ),USI,-43.3273438689438,172.598701763462
SHT0111,SHOTOVER PARK,34,Queenstown (Aurora Energy),LSI,-45.0123593761093,168.755572656105
SHT0112,SHOTOVER PARK,34,Queenstown (Aurora Energy),LSI,-45.0123593761093,168.755572656105
SHV0011,Selwyn Heights Retirement Villag,4,Auckland (Vector),UNI,-36.9043409403275,174.816231733156
SPN0331,SPRINGSTON,30,Central Canterbury (Orion New Zealand),USI,-43.6377968214956,172.449915244423
SPN0661,SPRINGSTON,30,Central Canterbury (Orion New Zealand),USI,-43.6377968214956,172.449915244423
SPO0011,150-160 BEAUMONT ST,4,Auckland (Vector),UNI,-36.8421737274964,174.753967309125
STR0111,THE STRAND,23,Wellington (Wellington Electricity),LNI,-41.2405929085561,174.916666629397
SVA0011,Patterson Apartments,4,Auckland (Vector),UNI,-36.8636684972544,174.700805136249
SVW0111,Silverwood,23,Wellington (Wellington Electricity),LNI,-41.1573248311886,174.871524369185
SYL0111,SYLVIA PARK,4,Auckland (Vector),UNI,-36.9043409403275,174.816231733156
SYL0112,SYLVIA PARK,4,Auckland (Vector),UNI,-36.9043409403275,174.816231733156
TKH0111,TE KAHA,12,Eastern Bay of Plenty (Horizon Energy),CNI,-37.7428158653574,177.685601223647
TMU1101,TE AWAMUTU,8,Waipa (Waipa Networks),CNI,-38.0021424587171,175.320165458345
TOB0501,TOKOMARU BAY,14,Eastland (Eastland Network),CNI,-38.123310304322,178.311133207725
TOM0111,BAYFAIR MALL,10,Tauranga (Powerco),CNI,-37.6746833180851,176.223753868769
TOT0011,131 QUEEN STREET,4,Auckland (Vector),UNI,-36.8467774251657,174.765680029153
TUI0111,TUAI,14,Eastland (Eastland Network),CNI,-38.8053542166733,177.151398921204
VST0221,VESTY DRIVE,4,Auckland (Vector),UNI,-36.9281685416662,174.834636444575
WDT0011,WESTFIELD DOWNTOWN,4,Auckland (Vector),UNI,-36.9043409403275,174.816231733156
WES0331,WESTERN ROAD,7,Waikato (WEL Networks),CNI,-37.5664111002355,175.147602467123
WGA0111,WIGRAM,30,Central Canterbury (Orion New Zealand),USI,-43.5364751569868,172.511818053536
WHT0011,25 VIVIAN STREET WELLINGTON,23,Wellington (Wellington Electricity),LNI,-36.9359352739952,174.992505971886
WMA0331,WAIMAHIA,4,Auckland (Vector),UNI,-37.0434928058821,174.869217420349
WMG0331,WAIMANGAROA,27,Buller (Buller Electricity),USI,-41.7181079118081,171.757220348643
WPR0011,Waipunahau Waikanae,22,Kapiti and Horowhenua (Electra),LNI,-43.0518991667489,172.75608957522
WPT0111,WESTPORT,27,Buller (Buller Electricity),USI,-41.7520512164091,171.50867383817
WRA0111,WAIROA,14,Eastland (Eastland Network),CNI,-38.9968228680484,177.406332232856
WRA0501,WAIROA,14,Eastland (Eastland Network),CNI,-38.9968228680484,177.406332232856
WTN0111,WINTON,38,Southland (The Power Company),LSI,-46.1434008675472,168.304021279756
WTN0661,WINTON,38,Southland (The Power Company),LSI,-46.1434008675472,168.304021279756
WWK0111,WHAREWAKA,13,Taupo (Unison Networks),CNI,-38.6256882146468,176.105439533333
